start=new Date('2022-08-20T00:00:00.000Z').valueOf();
sats=[{"BSTAR":"0.00000840010000","TLE_LINE1":"1 44944U 20001AG  22231.67008674 -.00000156  00000-0  84001-5 0  9997","RCS_SIZE":"LARGE","NORAD_CAT_ID":"44944","MEAN_ELEMENT_THEORY":"SGP4","TLE_LINE2":"2 44944  53.0557  33.6623 0001299  91.6021 268.5117 15.06398639144486","TIME_SYSTEM":"UTC","COUNTRY_CODE":"US","ECCENTRICITY":"0.00012990","APOAPSIS":"548.117","DECAY_DATE":null,"PERIOD":"95.592","OBJECT_TYPE":"PAYLOAD","OBJECT_ID":"2020-001AG","RA_OF_ASC_NODE":"33.6623","EPHEMERIS_TYPE":"0","INCLINATION":"53.0557","MEAN_MOTION":"15.06398639","ELEMENT_SET_NO":"999","REF_FRAME":"TEME","GP_ID":"210543498","MEAN_ANOMALY":"268.5117","LAUNCH_DATE":"2020-01-07","REV_AT_EPOCH":"14448","OBJECT_NAME":"STARLINK-1108","PERIAPSIS":"546.318","ARG_OF_PERICENTER":"91.6021","EPOCH":"2022-08-19T16:04:55.494336","FILE":"3540705","SITE":"AFETR","SEMIMAJOR_AXIS":"6925.353","MEAN_MOTION_DDOT":"0.0000000000000","MEAN_MOTION_DOT":"-0.00000156","CLASSIFICATION_TYPE":"U","CENTER_NAME":"EARTH"},{"COUNTRY_CODE":"US","ECCENTRICITY":"0.00014590","MEAN_ELEMENT_THEORY":"SGP4","TLE_LINE2":"2 44945  53.0561  32.9226 0001459  82.9245 277.1910 15.06390521144504","TIME_SYSTEM":"UTC","BSTAR":"-0.00006185400000","TLE_LINE1":"1 44945U 20001AH  22231.83228654 -.00001202  00000-0 -61854-4 0  9992","RCS_SIZE":"LARGE","NORAD_CAT_ID":"44945","INCLINATION":"53.0561","OBJECT_ID":"2020-001AH","RA_OF_ASC_NODE":"32.9226","EPHEMERIS_TYPE":"0","OBJECT_TYPE":"PAYLOAD","APOAPSIS":"548.253","DECAY_DATE":null,"PERIOD":"95.593","EPOCH":"2022-08-19T19:58:29.557056","SITE":"AFETR","FILE":"3540579","PERIAPSIS":"546.232","ARG_OF_PERICENTER":"82.9245","MEAN_ANOMALY":"277.1910","GP_ID":"210523617","LAUNCH_DATE":"2020-01-07","OBJECT_NAME":"STARLINK-1109","REV_AT_EPOCH":"14450","MEAN_MOTION":"15.06390521","ELEMENT_SET_NO":"999","REF_FRAME":"TEME","CLASSIFICATION_TYPE":"U","CENTER_NAME":"EARTH","MEAN_MOTION_DOT":"-0.00001202","SEMIMAJOR_AXIS":"6925.378","MEAN_MOTION_DDOT":"0.0000000000000"},{"PERIOD":"94.980","APOAPSIS":"519.308","DECAY_DATE":null,"OBJECT_TYPE":"PAYLOAD","EPHEMERIS_TYPE":"0","RA_OF_ASC_NODE":"19.8844","OBJECT_ID":"2020-001AJ","INCLINATION":"53.0049","RCS_SIZE":"LARGE","NORAD_CAT_ID":"44946","BSTAR":"0.00116720000000","TLE_LINE1":"1 44946U 20001AJ  22231.14463974  .00022523  00000-0  11672-2 0  9991","MEAN_ELEMENT_THEORY":"SGP4","TLE_LINE2":"2 44946  53.0049  19.8844 0002469  74.4455 285.6810 15.16112455144598","TIME_SYSTEM":"UTC","COUNTRY_CODE":"US","ECCENTRICITY":"0.00024690","MEAN_MOTION_DDOT":"0.0000000000000","SEMIMAJOR_AXIS":"6895.740","MEAN_MOTION_DOT":"0.00022523","CLASSIFICATION_TYPE":"U","CENTER_NAME":"EARTH","ELEMENT_SET_NO":"999","REF_FRAME":"TEME","MEAN_MOTION":"15.16112455","LAUNCH_DATE":"2020-01-07","REV_AT_EPOCH":"14459","OBJECT_NAME":"STARLINK-1110","MEAN_ANOMALY":"285.6810","GP_ID":"210523174","ARG_OF_PERICENTER":"74.4455","PERIAPSIS":"515.903","FILE":"3540579","SITE":"AFETR","EPOCH":"2022-08-19T03:28:16.873536"},{"PERIAPSIS":"545.683","ARG_OF_PERICENTER":"78.9090","EPOCH":"2022-08-18T17:26:09.598272","SITE":"AFETR","FILE":"3540331","MEAN_MOTION":"15.06397621","ELEMENT_SET_NO":"999","REF_FRAME":"TEME","MEAN_ANOMALY":"281.2148","GP_ID":"210491995","LAUNCH_DATE":"2020-01-07","OBJECT_NAME":"STARLINK-1116","REV_AT_EPOCH":"14434","MEAN_MOTION_DOT":"-0.00000043","CLASSIFICATION_TYPE":"U","CENTER_NAME":"EARTH","SEMIMAJOR_AXIS":"6925.356","MEAN_MOTION_DDOT":"0.0000000000000","COUNTRY_CODE":"US","ECCENTRICITY":"0.00022210","TLE_LINE1":"1 44947U 20001AK  22230.72649998 -.00000043  00000-0  16040-4 0  9997","BSTAR":"0.00001604000000","NORAD_CAT_ID":"44947","RCS_SIZE":"LARGE","MEAN_ELEMENT_THEORY":"SGP4","TLE_LINE2":"2 44947  53.0565  37.8863 0002221  78.9090 281.2148 15.06397621144341","TIME_SYSTEM":"UTC","OBJECT_ID":"2020-001AK","EPHEMERIS_TYPE":"0","RA_OF_ASC_NODE":"37.8863","INCLINATION":"53.0565","APOAPSIS":"548.759","DECAY_DATE":null,"PERIOD":"95.592","OBJECT_TYPE":"PAYLOAD"},{"MEAN_MOTION_DDOT":"0.0000000000000","SEMIMAJOR_AXIS":"6925.383","MEAN_MOTION_DOT":"-0.00000688","CENTER_NAME":"EARTH","CLASSIFICATION_TYPE":"U","ELEMENT_SET_NO":"999","REF_FRAME":"TEME","MEAN_MOTION":"15.06388612","REV_AT_EPOCH":"14450","OBJECT_NAME":"STARLINK-1122","LAUNCH_DATE":"2020-01-07","GP_ID":"210523170","MEAN_ANOMALY":"264.3374","ARG_OF_PERICENTER":"95.7733","PERIAPSIS":"546.529","SITE":"AFETR","FILE":"3540579","EPOCH":"2022-08-19T19:31:56.596800","PERIOD":"95.593","DECAY_DATE":null,"APOAPSIS":"547.968","OBJECT_TYPE":"PAYLOAD","EPHEMERIS_TYPE":"0","RA_OF_ASC_NODE":"33.0085","OBJECT_ID":"2020-001AM","INCLINATION":"53.0564","RCS_SIZE":"LARGE","NORAD_CAT_ID":"44949","TLE_LINE1":"1 44949U 20001AM  22231.81384950 -.00000688  00000-0 -27322-4 0  9995","BSTAR":"-0.00002732200000","TIME_SYSTEM":"UTC","TLE_LINE2":"2 44949  53.0564  33.0085 0001039  95.7733 264.3374 15.06388612144504","MEAN_ELEMENT_THEORY":"SGP4","ECCENTRICITY":"0.00010390","COUNTRY_CODE":"US"},{"OBJECT_TYPE":"PAYLOAD","DECAY_DATE":null,"APOAPSIS":"532.883","PERIOD":"95.267","INCLINATION":"53.0526","OBJECT_ID":"2020-001AN","EPHEMERIS_TYPE":"0","RA_OF_ASC_NODE":"30.2832","TIME_SYSTEM":"UTC","TLE_LINE2":"2 44950  53.0526  30.2832 0001980  86.6157 273.5060 15.11536682144532","MEAN_ELEMENT_THEORY":"SGP4","TLE_LINE1":"1 44950U 20001AN  22231.73844762  .00015836  00000-0  93880-3 0  9990","BSTAR":"0.00093880000000","RCS_SIZE":"LARGE","NORAD_CAT_ID":"44950","ECCENTRICITY":"0.00019800","COUNTRY_CODE":"US","SEMIMAJOR_AXIS":"6909.650","MEAN_MOTION_DDOT":"0.0000000000000","CENTER_NAME":"EARTH","CLASSIFICATION_TYPE":"U","MEAN_MOTION_DOT":"0.00015836","GP_ID":"210543749","MEAN_ANOMALY":"273.5060","OBJECT_NAME":"STARLINK-1125","REV_AT_EPOCH":"14453","LAUNCH_DATE":"2020-01-07","MEAN_MOTION":"15.11536682","ELEMENT_SET_NO":"999","REF_FRAME":"TEME","EPOCH":"2022-08-19T17:43:21.874368","FILE":"3540705","SITE":"AFETR","PERIAPSIS":"530.147","ARG_OF_PERICENTER":"86.6157"},{"MEAN_MOTION_DOT":"0.00013778","CENTER_NAME":"EARTH","CLASSIFICATION_TYPE":"U","SEMIMAJOR_AXIS":"6896.683","MEAN_MOTION_DDOT":"0.0000000000000","PERIAPSIS":"516.797","ARG_OF_PERICENTER":"73.3360","EPOCH":"2022-08-19T17:09:52.080768","SITE":"AFETR","FILE":"3540705","MEAN_MOTION":"15.15801569","ELEMENT_SET_NO":"999","REF_FRAME":"TEME","MEAN_ANOMALY":"286.7911","GP_ID":"210544998","OBJECT_NAME":"STARLINK-1126","REV_AT_EPOCH":"14595","LAUNCH_DATE":"2020-01-07","OBJECT_ID":"2020-001AP","EPHEMERIS_TYPE":"0","RA_OF_ASC_NODE":"18.2694","INCLINATION":"53.0058","DECAY_DATE":null,"APOAPSIS":"520.299","PERIOD":"94.999","OBJECT_TYPE":"PAYLOAD","ECCENTRICITY":"0.00025390","COUNTRY_CODE":"US","BSTAR":"0.00072740000000","TLE_LINE1":"1 44951U 20001AP  22231.71518612  .00013778  00000-0  72740-3 0  9996","NORAD_CAT_ID":"44951","RCS_SIZE":"LARGE","TIME_SYSTEM":"UTC","MEAN_ELEMENT_THEORY":"SGP4","TLE_LINE2":"2 44951  53.0058  18.2694 0002539  73.3360 286.7911 15.15801569145956"},{"COUNTRY_CODE":"US","ECCENTRICITY":"0.00017300","RCS_SIZE":"LARGE","NORAD_CAT_ID":"44952","BSTAR":"-0.00032277000000","TLE_LINE1":"1 44952U 20001AQ  22231.19827557 -.00005089  00000-0 -32277-3 0  9999","TLE_LINE2":"2 44952  53.0545  35.7783 0001730  79.1422 280.9762 15.06419791144418","MEAN_ELEMENT_THEORY":"SGP4","TIME_SYSTEM":"UTC","EPHEMERIS_TYPE":"0","RA_OF_ASC_NODE":"35.7783","OBJECT_ID":"2020-001AQ","INCLINATION":"53.0545","PERIOD":"95.591","APOAPSIS":"548.351","DECAY_DATE":null,"OBJECT_TYPE":"PAYLOAD","ARG_OF_PERICENTER":"79.1422","PERIAPSIS":"545.955","SITE":"AFETR","FILE":"3540406","EPOCH":"2022-08-19T04:45:31.009248","ELEMENT_SET_NO":"999","REF_FRAME":"TEME","MEAN_MOTION":"15.06419791","LAUNCH_DATE":"2020-01-07","OBJECT_NAME":"STARLINK-1117","REV_AT_EPOCH":"14441","MEAN_ANOMALY":"280.9762","GP_ID":"210514192","MEAN_MOTION_DOT":"-0.00005089","CLASSIFICATION_TYPE":"U","CENTER_NAME":"EARTH","MEAN_MOTION_DDOT":"0.0000000000000","SEMIMAJOR_AXIS":"6925.288"},{"COUNTRY_CODE":"US","ECCENTRICITY":"0.00009120","TLE_LINE2":"2 44953  53.0544  33.8947 0000912  70.3663 289.7424 15.06486737145765","MEAN_ELEMENT_THEORY":"SGP4","TIME_SYSTEM":"UTC","RCS_SIZE":"LARGE","NORAD_CAT_ID":"44953","TLE_LINE1":"1 44953U 20001AR  22231.61385181 -.00016456  00000-0 -10859-2 0  9990","BSTAR":"-0.00108590000000","INCLINATION":"53.0544","EPHEMERIS_TYPE":"0","RA_OF_ASC_NODE":"33.8947","OBJECT_ID":"2020-001AR","OBJECT_TYPE":"PAYLOAD","PERIOD":"95.587","APOAPSIS":"547.579","DECAY_DATE":null,"SITE":"AFETR","FILE":"3540705","EPOCH":"2022-08-19T14:43:56.796384","ARG_OF_PERICENTER":"70.3663","PERIAPSIS":"546.316","LAUNCH_DATE":"2020-01-07","OBJECT_NAME":"STARLINK-1124","REV_AT_EPOCH":"14576","GP_ID":"210543499","MEAN_ANOMALY":"289.7424","ELEMENT_SET_NO":"999","REF_FRAME":"TEME","MEAN_MOTION":"15.06486737","CLASSIFICATION_TYPE":"U","CENTER_NAME":"EARTH","MEAN_MOTION_DOT":"-0.00016456","MEAN_MOTION_DDOT":"0.0000000000000","SEMIMAJOR_AXIS":"6925.083"},{"MEAN_ANOMALY":"276.3269","GP_ID":"210512696","OBJECT_NAME":"STARLINK-1066","REV_AT_EPOCH":"14468","LAUNCH_DATE":"2020-01-07","MEAN_MOTION":"15.06407387","ELEMENT_SET_NO":"999","REF_FRAME":"TEME","EPOCH":"2022-08-19T11:52:48.641952","SITE":"AFETR","FILE":"3540406","PERIAPSIS":"546.168","ARG_OF_PERICENTER":"83.7889","SEMIMAJOR_AXIS":"6925.326","MEAN_MOTION_DDOT":"0.0000000000000","CENTER_NAME":"EARTH","CLASSIFICATION_TYPE":"U","MEAN_MOTION_DOT":"0.00004446","TIME_SYSTEM":"UTC","MEAN_ELEMENT_THEORY":"SGP4","TLE_LINE2":"2 44954  53.0568  14.4462 0001477  83.7889 276.3269 15.06407387144687","BSTAR":"0.00031713000000","TLE_LINE1":"1 44954U 20001AS  22231.49500743  .00004446  00000-0  31713-3 0  9997","RCS_SIZE":"LARGE","NORAD_CAT_ID":"44954","ECCENTRICITY":"0.00014770","COUNTRY_CODE":"US","OBJECT_TYPE":"PAYLOAD","DECAY_DATE":null,"APOAPSIS":"548.214","PERIOD":"95.592","INCLINATION":"53.0568","OBJECT_ID":"2020-001AS","EPHEMERIS_TYPE":"0","RA_OF_ASC_NODE":"14.4462"}];
